[{"OBJECT_NAME":"FLYING LAPTOP","OBJECT_ID":"2017-042G","EPOCH":"2026-03-29T04:23:03.560640","MEAN_MOTION":15.00641606,"ECCENTRICITY":0.0020032,"INCLINATION":97.4331,"RA_OF_ASC_NODE":246.9977,"ARG_OF_PERICENTER":35.1632,"MEAN_ANOMALY":325.091,"EPHEMERIS_TYPE":0,"CLASSIFICATION_TYPE":"U","NORAD_CAT_ID":42831,"ELEMENT_SET_NO":999,"REV_AT_EPOCH":47445,"BSTAR":0.00019964,"MEAN_MOTION_DOT":2.478e-5,"MEAN_MOTION_DDOT":0},{"OBJECT_NAME":"HAWK-A","OBJECT_ID":"2018-099H","EPOCH":"2026-03-29T02:51:40.225248","MEAN_MOTION":15.23535207,"ECCENTRICITY":0.0035135,"INCLINATION":97.4015,"RA_OF_ASC_NODE":141.4246,"ARG_OF_PERICENTER":204.7373,"MEAN_ANOMALY":155.2181,"EPHEMERIS_TYPE":0,"CLASSIFICATION_TYPE":"U","NORAD_CAT_ID":43765,"ELEMENT_SET_NO":999,"REV_AT_EPOCH":40090,"BSTAR":0.00034782,"MEAN_MOTION_DOT":8.383e-5,"MEAN_MOTION_DDOT":0},{"OBJECT_NAME":"HAWK-B","OBJECT_ID":"2018-099AN","EPOCH":"2026-03-29T02:42:39.932352","MEAN_MOTION":15.21809965,"ECCENTRICITY":0.0031749,"INCLINATION":97.4065,"RA_OF_ASC_NODE":140.9959,"ARG_OF_PERICENTER":222.2039,"MEAN_ANOMALY":137.6753,"EPHEMERIS_TYPE":0,"CLASSIFICATION_TYPE":"U","NORAD_CAT_ID":43794,"ELEMENT_SET_NO":999,"REV_AT_EPOCH":40085,"BSTAR":0.00033639,"MEAN_MOTION_DOT":7.673e-5,"MEAN_MOTION_DDOT":0},{"OBJECT_NAME":"HAWK-C","OBJECT_ID":"2018-099AT","EPOCH":"2026-03-29T01:47:42.067680","MEAN_MOTION":15.26767623,"ECCENTRICITY":0.0041171,"INCLINATION":97.3994,"RA_OF_ASC_NODE":141.9121,"ARG_OF_PERICENTER":206.7515,"MEAN_ANOMALY":153.1601,"EPHEMERIS_TYPE":0,"CLASSIFICATION_TYPE":"U","NORAD_CAT_ID":43799,"ELEMENT_SET_NO":999,"REV_AT_EPOCH":40168,"BSTAR":0.00038955,"MEAN_MOTION_DOT":0.00010435,"MEAN_MOTION_DDOT":0},{"OBJECT_NAME":"SALSAT","OBJECT_ID":"2020-068K","EPOCH":"2026-03-28T23:41:11.718816","MEAN_MOTION":15.28549734,"ECCENTRICITY":0.0008782,"INCLINATION":97.8861,"RA_OF_ASC_NODE":86.2455,"ARG_OF_PERICENTER":214.9729,"MEAN_ANOMALY":145.0934,"EPHEMERIS_TYPE":0,"CLASSIFICATION_TYPE":"U","NORAD_CAT_ID":46495,"ELEMENT_SET_NO":999,"REV_AT_EPOCH":30310,"BSTAR":0.00036891,"MEAN_MOTION_DOT":0.00010179,"MEAN_MOTION_DDOT":0},{"OBJECT_NAME":"HAWK-2C","OBJECT_ID":"2021-006CT","EPOCH":"2026-03-29T02:55:37.678368","MEAN_MOTION":15.33632794,"ECCENTRICITY":0.0008773,"INCLINATION":97.238,"RA_OF_ASC_NODE":134.0488,"ARG_OF_PERICENTER":122.1964,"MEAN_ANOMALY":238.0131,"EPHEMERIS_TYPE":0,"CLASSIFICATION_TYPE":"U","NORAD_CAT_ID":47502,"ELEMENT_SET_NO":999,"REV_AT_EPOCH":28722,"BSTAR":0.00046262,"MEAN_MOTION_DOT":0.00014996,"MEAN_MOTION_DDOT":0},{"OBJECT_NAME":"HAWK-2A","OBJECT_ID":"2021-006CW","EPOCH":"2026-03-29T01:26:15.156960","MEAN_MOTION":15.33638596,"ECCENTRICITY":0.000825,"INCLINATION":97.2424,"RA_OF_ASC_NODE":134.6185,"ARG_OF_PERICENTER":125.4011,"MEAN_ANOMALY":234.8004,"EPHEMERIS_TYPE":0,"CLASSIFICATION_TYPE":"U","NORAD_CAT_ID":47505,"ELEMENT_SET_NO":999,"REV_AT_EPOCH":28721,"BSTAR":0.0002588,"MEAN_MOTION_DOT":8.349e-5,"MEAN_MOTION_DDOT":0},{"OBJECT_NAME":"HAWK-2B","OBJECT_ID":"2021-006CZ","EPOCH":"2026-03-29T01:21:59.851008","MEAN_MOTION":15.33609874,"ECCENTRICITY":0.0008891,"INCLINATION":97.2298,"RA_OF_ASC_NODE":133.0811,"ARG_OF_PERICENTER":123.5493,"MEAN_ANOMALY":236.66,"EPHEMERIS_TYPE":0,"CLASSIFICATION_TYPE":"U","NORAD_CAT_ID":47508,"ELEMENT_SET_NO":999,"REV_AT_EPOCH":28721,"BSTAR":0.00029673,"MEAN_MOTION_DOT":9.578e-5,"MEAN_MOTION_DDOT":0},{"OBJECT_NAME":"HAWK-3B","OBJECT_ID":"2021-059BE","EPOCH":"2026-03-29T02:01:56.093664","MEAN_MOTION":15.63155009,"ECCENTRICITY":0.0004817,"INCLINATION":97.6722,"RA_OF_ASC_NODE":277.596,"ARG_OF_PERICENTER":256.0303,"MEAN_ANOMALY":104.0419,"EPHEMERIS_TYPE":0,"CLASSIFICATION_TYPE":"U","NORAD_CAT_ID":48931,"ELEMENT_SET_NO":999,"REV_AT_EPOCH":26531,"BSTAR":0.00049906,"MEAN_MOTION_DOT":0.00045592,"MEAN_MOTION_DDOT":0},{"OBJECT_NAME":"HAWK-3C","OBJECT_ID":"2021-059BX","EPOCH":"2026-03-29T02:01:29.599968","MEAN_MOTION":15.63162093,"ECCENTRICITY":0.0005037,"INCLINATION":97.6862,"RA_OF_ASC_NODE":283.135,"ARG_OF_PERICENTER":257.8244,"MEAN_ANOMALY":102.245,"EPHEMERIS_TYPE":0,"CLASSIFICATION_TYPE":"U","NORAD_CAT_ID":48948,"ELEMENT_SET_NO":999,"REV_AT_EPOCH":26531,"BSTAR":0.00049214,"MEAN_MOTION_DOT":0.00044968,"MEAN_MOTION_DDOT":0},{"OBJECT_NAME":"HAWK-3A","OBJECT_ID":"2021-059CG","EPOCH":"2026-03-29T02:01:18.629760","MEAN_MOTION":15.63158058,"ECCENTRICITY":0.0004781,"INCLINATION":97.68,"RA_OF_ASC_NODE":280.4058,"ARG_OF_PERICENTER":257.1119,"MEAN_ANOMALY":102.9604,"EPHEMERIS_TYPE":0,"CLASSIFICATION_TYPE":"U","NORAD_CAT_ID":48957,"ELEMENT_SET_NO":999,"REV_AT_EPOCH":26531,"BSTAR":0.00048837,"MEAN_MOTION_DOT":0.00044612,"MEAN_MOTION_DDOT":0},{"OBJECT_NAME":"HAWK-5C","OBJECT_ID":"2022-057Y","EPOCH":"2026-03-29T04:21:39.286944","MEAN_MOTION":15.48387827,"ECCENTRICITY":0.0004579,"INCLINATION":97.6481,"RA_OF_ASC_NODE":242.9334,"ARG_OF_PERICENTER":12.0819,"MEAN_ANOMALY":348.054,"EPHEMERIS_TYPE":0,"CLASSIFICATION_TYPE":"U","NORAD_CAT_ID":52754,"ELEMENT_SET_NO":999,"REV_AT_EPOCH":21395,"BSTAR":0.00045501,"MEAN_MOTION_DOT":0.00024052,"MEAN_MOTION_DDOT":0},{"OBJECT_NAME":"HAWK-5B","OBJECT_ID":"2022-057AA","EPOCH":"2026-03-28T22:09:13.351680","MEAN_MOTION":15.48381594,"ECCENTRICITY":0.0004452,"INCLINATION":97.6484,"RA_OF_ASC_NODE":241.0006,"ARG_OF_PERICENTER":5.5796,"MEAN_ANOMALY":354.5502,"EPHEMERIS_TYPE":0,"CLASSIFICATION_TYPE":"U","NORAD_CAT_ID":52756,"ELEMENT_SET_NO":999,"REV_AT_EPOCH":21391,"BSTAR":0.00044112,"MEAN_MOTION_DOT":0.00023307,"MEAN_MOTION_DDOT":0},{"OBJECT_NAME":"HAWK-5A","OBJECT_ID":"2022-057AB","EPOCH":"2026-03-29T04:21:08.396352","MEAN_MOTION":15.4838661,"ECCENTRICITY":0.0004898,"INCLINATION":97.6482,"RA_OF_ASC_NODE":242.108,"ARG_OF_PERICENTER":7.33,"MEAN_ANOMALY":352.802,"EPHEMERIS_TYPE":0,"CLASSIFICATION_TYPE":"U","NORAD_CAT_ID":52757,"ELEMENT_SET_NO":999,"REV_AT_EPOCH":21395,"BSTAR":0.00053779,"MEAN_MOTION_DOT":0.00028462,"MEAN_MOTION_DDOT":0},{"OBJECT_NAME":"HAWK-6B","OBJECT_ID":"2023-011A","EPOCH":"2026-03-29T02:17:02.349312","MEAN_MOTION":15.22145453,"ECCENTRICITY":0.0003709,"INCLINATION":40.499,"RA_OF_ASC_NODE":98.9601,"ARG_OF_PERICENTER":211.4751,"MEAN_ANOMALY":148.5836,"EPHEMERIS_TYPE":0,"CLASSIFICATION_TYPE":"U","NORAD_CAT_ID":55324,"ELEMENT_SET_NO":999,"REV_AT_EPOCH":17563,"BSTAR":0.00030521,"MEAN_MOTION_DOT":6.959e-5,"MEAN_MOTION_DDOT":0},{"OBJECT_NAME":"HAWK-6C","OBJECT_ID":"2023-011C","EPOCH":"2026-03-29T02:16:10.956000","MEAN_MOTION":15.22146373,"ECCENTRICITY":0.0003507,"INCLINATION":40.4977,"RA_OF_ASC_NODE":95.8099,"ARG_OF_PERICENTER":202.4484,"MEAN_ANOMALY":157.6172,"EPHEMERIS_TYPE":0,"CLASSIFICATION_TYPE":"U","NORAD_CAT_ID":55326,"ELEMENT_SET_NO":999,"REV_AT_EPOCH":17564,"BSTAR":0.00030583,"MEAN_MOTION_DOT":6.973e-5,"MEAN_MOTION_DDOT":0},{"OBJECT_NAME":"HAWK-6A","OBJECT_ID":"2023-011D","EPOCH":"2026-03-28T01:04:32.923200","MEAN_MOTION":15.22128436,"ECCENTRICITY":0.00030709,"INCLINATION":40.4987,"RA_OF_ASC_NODE":103.5427,"ARG_OF_PERICENTER":195.8659,"MEAN_ANOMALY":164.2055,"EPHEMERIS_TYPE":0,"CLASSIFICATION_TYPE":"U","NORAD_CAT_ID":55327,"ELEMENT_SET_NO":999,"REV_AT_EPOCH":17548,"BSTAR":0.00026480562,"MEAN_MOTION_DOT":6.007e-5,"MEAN_MOTION_DDOT":0}]
