FLYING LAPTOP           
1 42831U 17042G   26088.18268010  .00002478  00000+0  19964-3 0  9994
2 42831  97.4331 246.9977 0020032  35.1632 325.0910 15.00641606474451
HAWK-A                  
1 43765U 18099H   26088.11921557  .00008383  00000+0  34782-3 0  9995
2 43765  97.4015 141.4246 0035135 204.7373 155.2181 15.23535207400907
HAWK-B                  
1 43794U 18099AN  26088.11296218  .00007673  00000+0  33639-3 0  9997
2 43794  97.4065 140.9959 0031749 222.2039 137.6753 15.21809965400856
HAWK-C                  
1 43799U 18099AT  26088.07479245  .00010435  00000+0  38955-3 0  9996
2 43799  97.3994 141.9121 0041171 206.7515 153.1601 15.26767623401685
SALSAT                  
1 46495U 20068K   26087.98694119  .00010179  00000+0  36891-3 0  9991
2 46495  97.8861  86.2455 0008782 214.9729 145.0934 15.28549734303109
HAWK-2C                 
1 47502U 21006CT  26088.12196387  .00014996  00000+0  46262-3 0  9999
2 47502  97.2380 134.0488 0008773 122.1964 238.0131 15.33632794287229
HAWK-2A                 
1 47505U 21006CW  26088.05989765  .00008349  00000+0  25880-3 0  9992
2 47505  97.2424 134.6185 0008250 125.4011 234.8004 15.33638596287218
HAWK-2B                 
1 47508U 21006CZ  26088.05694272  .00009578  00000+0  29673-3 0  9990
2 47508  97.2298 133.0811 0008891 123.5493 236.6600 15.33609874287212
HAWK-3B                 
1 48931U 21059BE  26088.08467701  .00045592  00000+0  49906-3 0  9994
2 48931  97.6722 277.5960 0004817 256.0303 104.0419 15.63155009265316
HAWK-3C                 
1 48948U 21059BX  26088.08437037  .00044968  00000+0  49214-3 0  9999
2 48948  97.6862 283.1350 0005037 257.8244 102.2450 15.63162093265319
HAWK-3A                 
1 48957U 21059CG  26088.08424340  .00044612  00000+0  48837-3 0  9998
2 48957  97.6800 280.4058 0004781 257.1119 102.9604 15.63158058265319
HAWK-5C                 
1 52754U 22057Y   26088.18170471  .00024052  00000+0  45501-3 0  9992
2 52754  97.6481 242.9334 0004579  12.0819 348.0540 15.48387827213950
HAWK-5B                 
1 52756U 22057AA  26087.92307120  .00023307  00000+0  44112-3 0  9997
2 52756  97.6484 241.0006 0004452   5.5796 354.5502 15.48381594213913
HAWK-5A                 
1 52757U 22057AB  26088.18134718  .00028462  00000+0  53779-3 0  9994
2 52757  97.6482 242.1080 0004898   7.3300 352.8020 15.48386610213955
HAWK-6B                 
1 55324U 23011A   26088.09516608  .00006959  00000+0  30521-3 0  9997
2 55324  40.4990  98.9601 0003709 211.4751 148.5836 15.22145453175639
HAWK-6C                 
1 55326U 23011C   26088.09457125  .00006973  00000+0  30583-3 0  9991
2 55326  40.4977  95.8099 0003507 202.4484 157.6172 15.22146373175649
HAWK-6A                 
1 55327U 23011D   26087.04482550  .00006007  00000+0  26481-3 0  9996
2 55327  40.4987 103.5427 0003070 195.8659 164.2055 15.22128436175483
